{
  "type": "FeatureCollection",
  "features": [
    {
      "type": "Feature",
      "properties": {
        "norad_id": 30921,
        "name": "FENGYUN 1C DEB",
        "group": "fengyun-1c-debris",
        "lat": -3.498351765640748,
        "lon": -100.32757195641466,
        "alt_km": 797.1786467341553,
        "timestamp": "2025-12-18T14:52:08.305358+00:00",
        "meta_object_name": "FENGYUN 1C DEB",
        "meta_object_id": "1999-025AZK",
        "meta_epoch": "2025-12-18T05:57:37.772640",
        "meta_mean_motion": 14.32783288,
        "meta_eccentricity": 0.00165083,
        "meta_inclination": 98.8436,
        "meta_ra_of_asc_node": 79.8391,
        "meta_arg_of_pericenter": 20.3444,
        "meta_mean_anomaly": 49.5228,
        "meta_ephemeris_type": 0,
        "meta_classification_type": "U",
        "meta_norad_cat_id": 30921,
        "meta_element_set_no": 999,
        "meta_rev_at_epoch": 96903,
        "meta_bstar": 0.0014311442,
        "meta_mean_motion_dot": 3.862e-05,
        "meta_mean_motion_ddot": 0,
        "tle_line1": "1 30921U 99025AZK 25352.24835385  .00003862  00000+0  14311-2 0  9995",
        "tle_line2": "2 30921  98.8436  79.8391 0016508  20.3444  49.5228 14.32783288969032"
      },
      "geometry": {
        "type": "Point",
        "coordinates": [
          -100.32757195641466,
          -3.498351765640748
        ]
      }
    },
    {
      "type": "Feature",
      "properties": {
        "norad_id": 30922,
        "name": "FENGYUN 1C DEB",
        "group": "fengyun-1c-debris",
        "lat": 14.133144938979683,
        "lon": -169.5045379957827,
        "alt_km": 841.1995989735897,
        "timestamp": "2025-12-18T14:52:08.305369+00:00",
        "meta_object_name": "FENGYUN 1C DEB",
        "meta_object_id": "1999-025AZL",
        "meta_epoch": "2025-12-17T20:16:47.619840",
        "meta_mean_motion": 14.17472346,
        "meta_eccentricity": 0.00143973,
        "meta_inclination": 98.6399,
        "meta_ra_of_asc_node": 7.5484,
        "meta_arg_of_pericenter": 39.7989,
        "meta_mean_anomaly": 135.4591,
        "meta_ephemeris_type": 0,
        "meta_classification_type": "U",
        "meta_norad_cat_id": 30922,
        "meta_element_set_no": 999,
        "meta_rev_at_epoch": 96636,
        "meta_bstar": 0.00055225116,
        "meta_mean_motion_dot": 1.078e-05,
        "meta_mean_motion_ddot": 0,
        "tle_line1": "1 30922U 99025AZL 25351.84499560  .00001078  00000+0  55225-3 0  9999",
        "tle_line2": "2 30922  98.6399   7.5484 0014397  39.7989 135.4591 14.17472346966366"
      },
      "geometry": {
        "type": "Point",
        "coordinates": [
          -169.5045379957827,
          14.133144938979683
        ]
      }
    },
    {
      "type": "Feature",
      "properties": {
        "norad_id": 30925,
        "name": "FENGYUN 1C DEB",
        "group": "fengyun-1c-debris",
        "lat": 63.758746085900285,
        "lon": -36.85660561454199,
        "alt_km": 747.9268702990894,
        "timestamp": "2025-12-18T14:52:08.305379+00:00",
        "meta_object_name": "FENGYUN 1C DEB",
        "meta_object_id": "1999-025AZP",
        "meta_epoch": "2025-12-15T20:30:10.349280",
        "meta_mean_motion": 14.43176886,
        "meta_eccentricity": 0.00332807,
        "meta_inclination": 98.882,
        "meta_ra_of_asc_node": 121.7671,
        "meta_arg_of_pericenter": 228.4491,
        "meta_mean_anomaly": 288.0412,
        "meta_ephemeris_type": 0,
        "meta_classification_type": "U",
        "meta_norad_cat_id": 30925,
        "meta_element_set_no": 999,
        "meta_rev_at_epoch": 97117,
        "meta_bstar": 0.0016134552,
        "meta_mean_motion_dot": 5.414e-05,
        "meta_mean_motion_ddot": 0,
        "tle_line1": "1 30925U 99025AZP 25349.85428645  .00005414  00000+0  16135-2 0  9990",
        "tle_line2": "2 30925  98.8820 121.7671 0033280 228.4491 288.0412 14.43176886971175"
      },
      "geometry": {
        "type": "Point",
        "coordinates": [
          -36.85660561454199,
          63.758746085900285
        ]
      }
    },
    {
      "type": "Feature",
      "properties": {
        "norad_id": 30926,
        "name": "FENGYUN 1C DEB",
        "group": "fengyun-1c-debris",
        "lat": 18.895524735715533,
        "lon": 117.05804758233188,
        "alt_km": 706.4510083017849,
        "timestamp": "2025-12-18T14:52:08.305389+00:00",
        "meta_object_name": "FENGYUN 1C DEB",
        "meta_object_id": "1999-025AZQ",
        "meta_epoch": "2025-12-17T18:48:20.421216",
        "meta_mean_motion": 14.89420815,
        "meta_eccentricity": 0.01652262,
        "meta_inclination": 98.8026,
        "meta_ra_of_asc_node": 293.0879,
        "meta_arg_of_pericenter": 5.6369,
        "meta_mean_anomaly": 354.6654,
        "meta_ephemeris_type": 0,
        "meta_classification_type": "U",
        "meta_norad_cat_id": 30926,
        "meta_element_set_no": 999,
        "meta_rev_at_epoch": 842,
        "meta_bstar": 0.00051060381,
        "meta_mean_motion_dot": 6.199e-05,
        "meta_mean_motion_ddot": 0,
        "tle_line1": "1 30926U 99025AZQ 25351.78356969  .00006199  00000+0  51060-3 0  9993",
        "tle_line2": "2 30926  98.8026 293.0879 0165226   5.6369 354.6654 14.89420815  8423"
      },
      "geometry": {
        "type": "Point",
        "coordinates": [
          117.05804758233188,
          18.895524735715533
        ]
      }
    },
    {
      "type": "Feature",
      "properties": {
        "norad_id": 30927,
        "name": "FENGYUN 1C DEB",
        "group": "fengyun-1c-debris",
        "lat": 77.09994456547805,
        "lon": -81.86455453128688,
        "alt_km": 878.8980808093629,
        "timestamp": "2025-12-18T14:52:08.305399+00:00",
        "meta_object_name": "FENGYUN 1C DEB",
        "meta_object_id": "1999-025AZR",
        "meta_epoch": "2025-12-17T21:21:43.568640",
        "meta_mean_motion": 14.09007565,
        "meta_eccentricity": 0.0098227,
        "meta_inclination": 99.1831,
        "meta_ra_of_asc_node": 52.4581,
        "meta_arg_of_pericenter": 351.3451,
        "meta_mean_anomaly": 8.602,
        "meta_ephemeris_type": 0,
        "meta_classification_type": "U",
        "meta_norad_cat_id": 30927,
        "meta_element_set_no": 999,
        "meta_rev_at_epoch": 95756,
        "meta_bstar": 0.0014552608,
        "meta_mean_motion_dot": 2.589e-05,
        "meta_mean_motion_ddot": 0,
        "tle_line1": "1 30927U 99025AZR 25351.89008760  .00002589  00000+0  14553-2 0  9993",
        "tle_line2": "2 30927  99.1831  52.4581 0098227 351.3451   8.6020 14.09007565957564"
      },
      "geometry": {
        "type": "Point",
        "coordinates": [
          -81.86455453128688,
          77.09994456547805
        ]
      }
    },
    {
      "type": "Feature",
      "properties": {
        "norad_id": 30928,
        "name": "FENGYUN 1C DEB",
        "group": "fengyun-1c-debris",
        "lat": 64.86304258760013,
        "lon": 61.58488758442944,
        "alt_km": 938.1264377656935,
        "timestamp": "2025-12-18T14:52:08.305409+00:00",
        "meta_object_name": "FENGYUN 1C DEB",
        "meta_object_id": "1999-025AZS",
        "meta_epoch": "2025-12-18T05:44:43.163808",
        "meta_mean_motion": 13.2224589,
        "meta_eccentricity": 0.04499896,
        "meta_inclination": 98.8829,
        "meta_ra_of_asc_node": 80.7284,
        "meta_arg_of_pericenter": 18.3863,
        "meta_mean_anomaly": 35.6111,
        "meta_ephemeris_type": 0,
        "meta_classification_type": "U",
        "meta_norad_cat_id": 30928,
        "meta_element_set_no": 999,
        "meta_rev_at_epoch": 90421,
        "meta_bstar": 0.00088223255,
        "meta_mean_motion_dot": 5.92e-06,
        "meta_mean_motion_ddot": 0,
        "tle_line1": "1 30928U 99025AZS 25352.23938847  .00000592  00000+0  88223-3 0  9999",
        "tle_line2": "2 30928  98.8829  80.7284 0449989  18.3863  35.6111 13.22245890904218"
      },
      "geometry": {
        "type": "Point",
        "coordinates": [
          61.58488758442944,
          64.86304258760013
        ]
      }
    },
    {
      "type": "Feature",
      "properties": {
        "norad_id": 30930,
        "name": "FENGYUN 1C DEB",
        "group": "fengyun-1c-debris",
        "lat": 60.5593772161118,
        "lon": -144.51991707300417,
        "alt_km": 692.7064380332049,
        "timestamp": "2025-12-18T14:52:08.305419+00:00",
        "meta_object_name": "FENGYUN 1C DEB",
        "meta_object_id": "1999-025AZU",
        "meta_epoch": "2025-12-18T01:06:04.413024",
        "meta_mean_motion": 14.37401649,
        "meta_eccentricity": 0.01097658,
        "meta_inclination": 98.2147,
        "meta_ra_of_asc_node": 20.1023,
        "meta_arg_of_pericenter": 90.5552,
        "meta_mean_anomaly": 300.4035,
        "meta_ephemeris_type": 0,
        "meta_classification_type": "U",
        "meta_norad_cat_id": 30930,
        "meta_element_set_no": 999,
        "meta_rev_at_epoch": 98408,
        "meta_bstar": 0.00027412907,
        "meta_mean_motion_dot": 8.36e-06,
        "meta_mean_motion_ddot": 0,
        "tle_line1": "1 30930U 99025AZU 25352.04588441  .00000836  00000+0  27413-3 0  9997",
        "tle_line2": "2 30930  98.2147  20.1023 0109765  90.5552 300.4035 14.37401649984083"
      },
      "geometry": {
        "type": "Point",
        "coordinates": [
          -144.51991707300417,
          60.5593772161118
        ]
      }
    }
  ]
}